{"fetchedAt":"2026-06-29T18:07:57.361Z","satellites":[{"id":"69268","name":"KUIPER-00383","constellationId":"kuiper","omm":{"OBJECT_NAME":"KUIPER-00383","OBJECT_ID":"2026-118B","EPOCH":"2026-06-29T08:00:03.000384","MEAN_MOTION":15.34333365,"ECCENTRICITY":0.0010343,"INCLINATION":51.86,"RA_OF_ASC_NODE":355.0537,"ARG_OF_PERICENTER":232.9883,"MEAN_ANOMALY":123.2259,"EPHEMERIS_TYPE":0,"CLASSIFICATION_TYPE":"U","NORAD_CAT_ID":69268,"ELEMENT_SET_NO":999,"REV_AT_EPOCH":528,"BSTAR":0.0018138,"MEAN_MOTION_DOT":0.0006143,"MEAN_MOTION_DDOT":0}},{"id":"69269","name":"KUIPER-00527","constellationId":"kuiper","omm":{"OBJECT_NAME":"KUIPER-00527","OBJECT_ID":"2026-118C","EPOCH":"2026-06-28T22:27:50.698080","MEAN_MOTION":15.34348488,"ECCENTRICITY":0.00094768,"INCLINATION":51.8616,"RA_OF_ASC_NODE":356.8931,"ARG_OF_PERICENTER":222.1186,"MEAN_ANOMALY":137.9071,"EPHEMERIS_TYPE":0,"CLASSIFICATION_TYPE":"U","NORAD_CAT_ID":69269,"ELEMENT_SET_NO":999,"REV_AT_EPOCH":578,"BSTAR":0.00048960062,"MEAN_MOTION_DOT":0.00016207,"MEAN_MOTION_DDOT":0}},{"id":"69270","name":"KUIPER-00562","constellationId":"kuiper","omm":{"OBJECT_NAME":"KUIPER-00562","OBJECT_ID":"2026-118D","EPOCH":"2026-06-25T13:25:38.076672","MEAN_MOTION":15.38854748,"ECCENTRICITY":0.0001319,"INCLINATION":51.872,"RA_OF_ASC_NODE":12.5412,"ARG_OF_PERICENTER":134.3702,"MEAN_ANOMALY":225.7394,"EPHEMERIS_TYPE":0,"CLASSIFICATION_TYPE":"U","NORAD_CAT_ID":69270,"ELEMENT_SET_NO":999,"REV_AT_EPOCH":527,"BSTAR":0.00098221,"MEAN_MOTION_DOT":0.00038146,"MEAN_MOTION_DDOT":0}},{"id":"69271","name":"KUIPER-00570","constellationId":"kuiper","omm":{"OBJECT_NAME":"KUIPER-00570","OBJECT_ID":"2026-118E","EPOCH":"2026-06-29T12:00:02.998944","MEAN_MOTION":15.31008021,"ECCENTRICITY":0.0010236,"INCLINATION":51.8608,"RA_OF_ASC_NODE":354.2175,"ARG_OF_PERICENTER":231.564,"MEAN_ANOMALY":334.0318,"EPHEMERIS_TYPE":0,"CLASSIFICATION_TYPE":"U","NORAD_CAT_ID":69271,"ELEMENT_SET_NO":999,"REV_AT_EPOCH":542,"BSTAR":-0.032663,"MEAN_MOTION_DOT":-0.00912918,"MEAN_MOTION_DDOT":0}},{"id":"69272","name":"KUIPER-00572","constellationId":"kuiper","omm":{"OBJECT_NAME":"KUIPER-00572","OBJECT_ID":"2026-118F","EPOCH":"2026-06-28T18:33:12.789216","MEAN_MOTION":15.37320059,"ECCENTRICITY":0.00068124,"INCLINATION":51.8675,"RA_OF_ASC_NODE":357.3219,"ARG_OF_PERICENTER":216.0414,"MEAN_ANOMALY":144.0114,"EPHEMERIS_TYPE":0,"CLASSIFICATION_TYPE":"U","NORAD_CAT_ID":69272,"ELEMENT_SET_NO":999,"REV_AT_EPOCH":576,"BSTAR":0.00065320315,"MEAN_MOTION_DOT":0.00023961,"MEAN_MOTION_DDOT":0}},{"id":"69273","name":"KUIPER-00581","constellationId":"kuiper","omm":{"OBJECT_NAME":"KUIPER-00581","OBJECT_ID":"2026-118G","EPOCH":"2026-06-29T12:00:02.998944","MEAN_MOTION":15.31668756,"ECCENTRICITY":0.0009408,"INCLINATION":51.8692,"RA_OF_ASC_NODE":353.9301,"ARG_OF_PERICENTER":231.5228,"MEAN_ANOMALY":124.4779,"EPHEMERIS_TYPE":0,"CLASSIFICATION_TYPE":"U","NORAD_CAT_ID":69273,"ELEMENT_SET_NO":999,"REV_AT_EPOCH":554,"BSTAR":-0.068232,"MEAN_MOTION_DOT":-0.01898907,"MEAN_MOTION_DDOT":0}},{"id":"69274","name":"KUIPER-00584","constellationId":"kuiper","omm":{"OBJECT_NAME":"KUIPER-00584","OBJECT_ID":"2026-118H","EPOCH":"2026-06-29T12:00:02.998944","MEAN_MOTION":15.19891767,"ECCENTRICITY":0.0012799,"INCLINATION":51.8742,"RA_OF_ASC_NODE":354.635,"ARG_OF_PERICENTER":242.5892,"MEAN_ANOMALY":98.2931,"EPHEMERIS_TYPE":0,"CLASSIFICATION_TYPE":"U","NORAD_CAT_ID":69274,"ELEMENT_SET_NO":999,"REV_AT_EPOCH":446,"BSTAR":-0.050499,"MEAN_MOTION_DOT":-0.01013889,"MEAN_MOTION_DDOT":0}},{"id":"69275","name":"KUIPER-00587","constellationId":"kuiper","omm":{"OBJECT_NAME":"KUIPER-00587","OBJECT_ID":"2026-118J","EPOCH":"2026-06-28T17:08:38.944896","MEAN_MOTION":15.36818161,"ECCENTRICITY":0.00073713,"INCLINATION":51.8634,"RA_OF_ASC_NODE":357.669,"ARG_OF_PERICENTER":224.438,"MEAN_ANOMALY":135.6016,"EPHEMERIS_TYPE":0,"CLASSIFICATION_TYPE":"U","NORAD_CAT_ID":69275,"ELEMENT_SET_NO":999,"REV_AT_EPOCH":575,"BSTAR":0.00056436299,"MEAN_MOTION_DOT":0.00020305,"MEAN_MOTION_DDOT":0}},{"id":"69276","name":"KUIPER-00590","constellationId":"kuiper","omm":{"OBJECT_NAME":"KUIPER-00590","OBJECT_ID":"2026-118K","EPOCH":"2026-06-28T21:15:16.824960","MEAN_MOTION":15.38225486,"ECCENTRICITY":0.00036575,"INCLINATION":51.8709,"RA_OF_ASC_NODE":356.5833,"ARG_OF_PERICENTER":210.2341,"MEAN_ANOMALY":149.8436,"EPHEMERIS_TYPE":0,"CLASSIFICATION_TYPE":"U","NORAD_CAT_ID":69276,"ELEMENT_SET_NO":999,"REV_AT_EPOCH":578,"BSTAR":0.00066137106,"MEAN_MOTION_DOT":0.0002499,"MEAN_MOTION_DDOT":0}},{"id":"69277","name":"KUIPER-00592","constellationId":"kuiper","omm":{"OBJECT_NAME":"KUIPER-00592","OBJECT_ID":"2026-118L","EPOCH":"2026-06-28T18:02:33.605376","MEAN_MOTION":15.38416782,"ECCENTRICITY":0.00027797,"INCLINATION":51.8715,"RA_OF_ASC_NODE":357.1899,"ARG_OF_PERICENTER":182.3755,"MEAN_ANOMALY":177.7219,"EPHEMERIS_TYPE":0,"CLASSIFICATION_TYPE":"U","NORAD_CAT_ID":69277,"ELEMENT_SET_NO":999,"REV_AT_EPOCH":576,"BSTAR":0.00086294176,"MEAN_MOTION_DOT":0.00032966,"MEAN_MOTION_DDOT":0}},{"id":"69278","name":"KUIPER-00593","constellationId":"kuiper","omm":{"OBJECT_NAME":"KUIPER-00593","OBJECT_ID":"2026-118M","EPOCH":"2026-06-28T21:11:09.612096","MEAN_MOTION":15.3837231,"ECCENTRICITY":0.00031419,"INCLINATION":51.8721,"RA_OF_ASC_NODE":356.568,"ARG_OF_PERICENTER":209.7647,"MEAN_ANOMALY":150.3162,"EPHEMERIS_TYPE":0,"CLASSIFICATION_TYPE":"U","NORAD_CAT_ID":69278,"ELEMENT_SET_NO":999,"REV_AT_EPOCH":584,"BSTAR":0.00080067631,"MEAN_MOTION_DOT":0.00030505,"MEAN_MOTION_DDOT":0}},{"id":"69279","name":"KUIPER-00594","constellationId":"kuiper","omm":{"OBJECT_NAME":"KUIPER-00594","OBJECT_ID":"2026-118N","EPOCH":"2026-06-29T12:28:52.597344","MEAN_MOTION":15.38859078,"ECCENTRICITY":0.0001431,"INCLINATION":51.8729,"RA_OF_ASC_NODE":353.3408,"ARG_OF_PERICENTER":95.6978,"MEAN_ANOMALY":264.4172,"EPHEMERIS_TYPE":0,"CLASSIFICATION_TYPE":"U","NORAD_CAT_ID":69279,"ELEMENT_SET_NO":999,"REV_AT_EPOCH":588,"BSTAR":0.00086107,"MEAN_MOTION_DOT":0.00033376,"MEAN_MOTION_DDOT":0}},{"id":"69280","name":"KUIPER-00595","constellationId":"kuiper","omm":{"OBJECT_NAME":"KUIPER-00595","OBJECT_ID":"2026-118P","EPOCH":"2026-06-28T16:00:03.000096","MEAN_MOTION":15.38823691,"ECCENTRICITY":0.00008628,"INCLINATION":51.8722,"RA_OF_ASC_NODE":357.5094,"ARG_OF_PERICENTER":193.2673,"MEAN_ANOMALY":101.0156,"EPHEMERIS_TYPE":0,"CLASSIFICATION_TYPE":"U","NORAD_CAT_ID":69280,"ELEMENT_SET_NO":999,"REV_AT_EPOCH":578,"BSTAR":-0.00022492549,"MEAN_MOTION_DOT":-0.00009159,"MEAN_MOTION_DDOT":0}},{"id":"69281","name":"KUIPER-00596","constellationId":"kuiper","omm":{"OBJECT_NAME":"KUIPER-00596","OBJECT_ID":"2026-118Q","EPOCH":"2026-06-29T12:00:02.998944","MEAN_MOTION":15.21161236,"ECCENTRICITY":0.0012822,"INCLINATION":51.8699,"RA_OF_ASC_NODE":354.5058,"ARG_OF_PERICENTER":239.899,"MEAN_ANOMALY":172.8133,"EPHEMERIS_TYPE":0,"CLASSIFICATION_TYPE":"U","NORAD_CAT_ID":69281,"ELEMENT_SET_NO":999,"REV_AT_EPOCH":517,"BSTAR":-0.0774,"MEAN_MOTION_DOT":-0.01594687,"MEAN_MOTION_DDOT":0}},{"id":"69282","name":"KUIPER-00597","constellationId":"kuiper","omm":{"OBJECT_NAME":"KUIPER-00597","OBJECT_ID":"2026-118R","EPOCH":"2026-06-28T21:37:49.080000","MEAN_MOTION":15.37331464,"ECCENTRICITY":0.00076136,"INCLINATION":51.8647,"RA_OF_ASC_NODE":356.6779,"ARG_OF_PERICENTER":221.2901,"MEAN_ANOMALY":138.7511,"EPHEMERIS_TYPE":0,"CLASSIFICATION_TYPE":"U","NORAD_CAT_ID":69282,"ELEMENT_SET_NO":999,"REV_AT_EPOCH":578,"BSTAR":0.00080270163,"MEAN_MOTION_DOT":0.00029574,"MEAN_MOTION_DDOT":0}}]}