[
  {
    "name": "KUIPER-00383",
    "noradId": "69268",
    "line1": "1 69268U 26118B   26180.33336806  .00061430  00000+0  18138-2 0  9994",
    "line2": "2 69268  51.8600 355.0537 0010343 232.9883 123.2259 15.34333365  5282"
  },
  {
    "name": "KUIPER-00527",
    "noradId": "69269",
    "line1": "1 69269U 26118C   26179.93600345  .00016207  00000+0  48960-3 0  9990",
    "line2": "2 69269  51.8616 356.8931 0009476 222.1186 137.9071 15.34348488  5780"
  },
  {
    "name": "KUIPER-00562",
    "noradId": "69270",
    "line1": "1 69270U 26118D   26176.55946848  .00038146  00000+0  98221-3 0  9999",
    "line2": "2 69270  51.8720  12.5412 0001319 134.3702 225.7394 15.38854748  5277"
  },
  {
    "name": "KUIPER-00570",
    "noradId": "69271",
    "line1": "1 69271U 26118E   26180.50003471 -.00912918  00000+0 -32663-1 0  9992",
    "line2": "2 69271  51.8608 354.2175 0010236 231.5640 334.0318 15.31008021  5429"
  },
  {
    "name": "KUIPER-00572",
    "noradId": "69272",
    "line1": "1 69272U 26118F   26179.77306469  .00023961  00000+0  65320-3 0  9990",
    "line2": "2 69272  51.8675 357.3219 0006812 216.0414 144.0114 15.37320059  5763"
  },
  {
    "name": "KUIPER-00581",
    "noradId": "69273",
    "line1": "1 69273U 26118G   26180.50003471 -.01898907  00000+0 -68232-1 0  9997",
    "line2": "2 69273  51.8692 353.9301 0009408 231.5228 124.4779 15.31668756  5544"
  },
  {
    "name": "KUIPER-00584",
    "noradId": "69274",
    "line1": "1 69274U 26118H   26180.50003471 -.01013889  00000+0 -50499-1 0  9992",
    "line2": "2 69274  51.8742 354.6350 0012799 242.5892  98.2931 15.19891767  4463"
  },
  {
    "name": "KUIPER-00587",
    "noradId": "69275",
    "line1": "1 69275U 26118J   26179.71433964  .00020305  00000+0  56436-3 0  9995",
    "line2": "2 69275  51.8634 357.6690 0007371 224.4380 135.6016 15.36818161  5754"
  },
  {
    "name": "KUIPER-00590",
    "noradId": "69276",
    "line1": "1 69276U 26118K   26179.88561140  .00024990  00000+0  66137-3 0  9995",
    "line2": "2 69276  51.8709 356.5833 0003657 210.2341 149.8436 15.38225486  5788"
  },
  {
    "name": "KUIPER-00592",
    "noradId": "69277",
    "line1": "1 69277U 26118L   26179.75177784  .00032966  00000+0  86294-3 0  9997",
    "line2": "2 69277  51.8715 357.1899 0002779 182.3755 177.7219 15.38416782  5765"
  },
  {
    "name": "KUIPER-00593",
    "noradId": "69278",
    "line1": "1 69278U 26118M   26179.88275014  .00030505  00000+0  80068-3 0  9997",
    "line2": "2 69278  51.8721 356.5680 0003141 209.7647 150.3162 15.38372310  5843"
  },
  {
    "name": "KUIPER-00594",
    "noradId": "69279",
    "line1": "1 69279U 26118N   26180.52005321  .00033376  00000+0  86107-3 0  9992",
    "line2": "2 69279  51.8729 353.3408 0001431  95.6978 264.4172 15.38859078  5887"
  },
  {
    "name": "KUIPER-00595",
    "noradId": "69280",
    "line1": "1 69280U 26118P   26179.66670139 -.00009159  00000+0 -22493-3 0  9994",
    "line2": "2 69280  51.8722 357.5094 0000862 193.2673 101.0156 15.38823691  5782"
  },
  {
    "name": "KUIPER-00596",
    "noradId": "69281",
    "line1": "1 69281U 26118Q   26180.50003471 -.01594687  00000+0 -77400-1 0  9991",
    "line2": "2 69281  51.8699 354.5058 0012822 239.8990 172.8133 15.21161236  5177"
  },
  {
    "name": "KUIPER-00597",
    "noradId": "69282",
    "line1": "1 69282U 26118R   26179.90126250  .00029574  00000+0  80270-3 0  9991",
    "line2": "2 69282  51.8647 356.6779 0007613 221.2901 138.7511 15.37331464  5780"
  }
]